1 40129U 14050B   18239.38444138 -.00000079  00000-0  00000-0 0  9991
2 40129  50.5497  26.7550 1655025  79.0306 299.0928  1.85519821 27594
1 40129U 14050B   18240.46244569 -.00000075  00000-0  00000+0 0  9993
2 40129  50.5500  26.7120 1655064  79.0656 299.0574  1.85519820 27588
1 40129U 14050B   18241.54045209 -.00000071  00000-0  00000-0 0  9990
2 40129  50.5503  26.6689 1655085  79.1006 299.0233  1.85519809 27638
1 40129U 14050B   18242.61846323 -.00000067  00000-0  00000+0 0  9999
2 40129  50.5506  26.6259 1655096  79.1355 298.9910  1.85519734 27629
1 40129U 14050B   18243.69647497 -.00000064  00000-0  00000-0 0  9997
2 40129  50.5509  26.5828 1655115  79.1707 298.9606  1.85519733 27672
1 40129U 14050B   18244.77448801 -.00000063  00000-0  00000+0 0  9993
2 40129  50.5513  26.5398 1655136  79.2058 298.9312  1.85519748 27661
1 40129U 14050B   18246.39150786 -.00000064  00000-0  00000-0 0  9997
2 40129  50.5517  26.4752 1655169  79.2585 298.8868  1.85519732 27724
1 40129U 14050B   18246.93051534 -.00000065  00000-0  00000+0 0  9998
2 40129  50.5519  26.4537 1655189  79.2759 298.8715  1.85519676 27708
1 40129U 14050B   18247.46951833 -.00000066  00000-0  00000-0 0  9990
2 40129  50.5520  26.4322 1655206  79.2934 298.8555  1.85519724 27747
1 40129U 14050B   18248.54752520 -.00000071  00000-0  00000-0 0  9998
2 40129  50.5523  26.3891 1655213  79.3287 298.8206  1.85519690 27767
1 40129U 14050B   18250.16452568 -.00000081  00000-0  00000+0 0  9998
2 40129  50.5528  26.3245 1655250  79.3813 298.7639  1.85519745 27761
1 40129U 14050B   18250.70352566 -.00000084  00000-0  00000-0 0  9999
2 40129  50.5529  26.3029 1655236  79.3993 298.7434  1.85519714 27809
1 40129U 14050B   18250.70352578 -.00000084  00000-0  00000-0 0  9992
2 40129  50.5530  26.3029 1655253  79.3990 298.7439  1.85519721 27800
1 40129U 14050B   18251.78152309 -.00000091  00000-0  00000-0 0  9999
2 40129  50.5532  26.2598 1655276  79.4342 298.7041  1.85519766 27829
1 40129U 14050B   18252.32052165 -.00000094  00000-0  00000+0 0  9991
2 40129  50.5534  26.2383 1655286  79.4518 298.6845  1.85519808 27805
1 40129U 14050B   18252.85952202 -.00000097  00000-0  00000-0 0  9994
2 40129  50.5535  26.2168 1655295  79.4694 298.6654  1.85519816 27843
1 40129U 14050B   18253.39852213 -.00000099  00000-0  00000-0 0  9997
2 40129  50.5537  26.1952 1655299  79.4871 298.6467  1.85519867 27855
1 40129U 14050B   18254.47652776 -.00000103  00000-0  00000+0 0  9994
2 40129  50.5540  26.1522 1655334  79.5218 298.6124  1.85519887 27849
1 40129U 14050B   18254.47652792 -.00000103  00000-0  00000-0 0  9993
2 40129  50.5540  26.1521 1655332  79.5220 298.6123  1.85519885 27879
1 40129U 14050B   18255.01553271 -.00000104  00000-0  00000-0 0  9997
2 40129  50.5541  26.1306 1655336  79.5395 298.5959  1.85519897 27888
1 40129U 14050B   18255.55453682 -.00000104  00000-0  00000-0 0  9991
2 40129  50.5543  26.1091 1655353  79.5566 298.5807  1.85519941 27893
1 40129U 14050B   18256.09354335 -.00000105  00000-0  00000-0 0  9997
2 40129  50.5545  26.0876 1655364  79.5740 298.5658  1.85519952 27909
1 40129U 14050B   18256.63254895 -.00000105  00000-0  00000+0 0  9996
2 40129  50.5546  26.0660 1655377  79.5915 298.5513  1.85520016 27889
1 40129U 14050B   18257.71056363 -.00000104  00000-0  00000-0 0  9996
2 40129  50.5549  26.0230 1655396  79.6264 298.5231  1.85520050 27935
1 40129U 14050B   18258.24957123 -.00000103  00000-0  00000-0 0  9998
2 40129  50.5550  26.0014 1655404  79.6439 298.5091  1.85520065 27942
1 40129U 14050B   18259.32758325 -.00000102  00000-0  00000+0 0  9999
2 40129  50.5553  25.9584 1655433  79.6788 298.4809  1.85520172 27938
1 40129U 14050B   18260.40559620 -.00000100  00000-0  00000-0 0  9996
2 40129  50.5556  25.9153 1655458  79.7137 298.4514  1.85520184 27980
1 40129U 14050B   18261.48360450 -.00000098  00000-0  00000+0 0  9991
2 40129  50.5558  25.8723 1655475  79.7484 298.4205  1.85520247 27974
1 40129U 14050B   18262.02260860 -.00000098  00000-0  00000-0 0  9997
2 40129  50.5560  25.8507 1655468  79.7657 298.4043  1.85520260 28012
1 40129U 14050B   18262.02260937 -.00000098  00000-0  00000-0 0  9992
2 40129  50.5560  25.8507 1655485  79.7658 298.4043  1.85520222 28010
1 40129U 14050B   18263.63961587 -.00000094  00000-0  00000-0 0  9995
2 40129  50.5564  25.7861 1655511  79.8176 298.3540  1.85520272 28018
1 40129U 14050B   18265.25661910 -.00000089  00000-0  00000-0 0  9996
2 40129  50.5568  25.7216 1655547  79.8693 298.3015  1.85520289 28070
1 40129U 14050B   18265.25661932 -.00000089  00000-0  00000-0 0  9990
2 40129  50.5568  25.7216 1655538  79.8694 298.3014  1.85520282 28073
1 40129U 14050B   18266.33461880 -.00000086  00000-0  00000-0 0  9997
2 40129  50.5570  25.6786 1655557  79.9041 298.2661  1.85520355 28095
1 40129U 14050B   18266.33462027 -.00000086  00000-0  00000-0 0  9991
2 40129  50.5571  25.6785 1655568  79.9040 298.2662  1.85520310 28098
1 40129U 14050B   18267.41262195 -.00000081  00000-0  00000-0 0  9990
2 40129  50.5573  25.6356 1655577  79.9387 298.2316  1.85520339 28118
1 40129U 14050B   18267.41262310 -.00000081  00000-0  00000-0 0  9999
2 40129  50.5573  25.6355 1655588  79.9388 298.2317  1.85520311 28111
1 40129U 14050B   18268.49062801 -.00000077  00000-0  00000-0 0  9996
2 40129  50.5576  25.5925 1655591  79.9734 298.1986  1.85520294 28138
1 40129U 14050B   18269.02963258 -.00000075  00000-0  00000-0 0  9990
2 40129  50.5577  25.5709 1655603  79.9907 298.1829  1.85520255 28149
1 40129U 14050B   18269.56863749 -.00000073  00000-0  00000-0 0  9991
2 40129  50.5578  25.5494 1655613  80.0083 298.1673  1.85520241 28153
1 40129U 14050B   18270.10764208 -.00000072  00000-0  00000+0 0  9991
2 40129  50.5580  25.5279 1655617  80.0257 298.1524  1.85520245 28131
1 40129U 14050B   18270.64664643 -.00000070  00000-0  00000-0 0  9991
2 40129  50.5581  25.5063 1655620  80.0428 298.1382  1.85520265 28175
1 40129U 14050B   18270.64664659 -.00000070  00000-0  00000-0 0  9998
2 40129  50.5581  25.5063 1655627  80.0430 298.1381  1.85520271 28171
1 40129U 14050B   18272.26366640 -.00000068  00000-0  00000+0 0  9993
2 40129  50.5585  25.4418 1655653  80.0950 298.0967  1.85520240 28179
1 40129U 14050B   18272.80267334 -.00000068  00000-0  00000-0 0  9994
2 40129  50.5587  25.4202 1655658  80.1123 298.0829  1.85520221 28211
1 40129U 14050B   18273.34167950 -.00000068  00000-0  00000-0 0  9997
2 40129  50.5588  25.3987 1655655  80.1296 298.0690  1.85520194 28225
1 40129U 14050B   18274.41969110 -.00000070  00000-0  00000+0 0  9996
2 40129  50.5590  25.3556 1655689  80.1644 298.0400  1.85520182 28219
1 40129U 14050B   18275.49769764 -.00000075  00000-0  00000-0 0  9994
2 40129  50.5593  25.3126 1655708  80.1990 298.0084  1.85520197 28260
1 40129U 14050B   18276.03669981 -.00000077  00000-0  00000-0 0  9997
2 40129  50.5594  25.2910 1655717  80.2163 297.9916  1.85520192 28272
1 40129U 14050B   18276.57569867 -.00000080  00000-0  00000+0 0  9991
2 40129  50.5596  25.2694 1655713  80.2337 297.9739  1.85520246 28253
1 40129U 14050B   18277.65370064 -.00000087  00000-0  00000-0 0  9998
2 40129  50.5598  25.2263 1655734  80.2685 297.9372  1.85520186 28308
1 40129U 14050B   18279.27069586 -.00000097  00000-0  00000+0 0  9992
2 40129  50.5602  25.1617 1655763  80.3207 297.8807  1.85520265 28309
1 40129U 14050B   18280.34869502 -.00000103  00000-0  00000-0 0  9997
2 40129  50.5605  25.1186 1655773  80.3555 297.8445  1.85520311 28355
1 40129U 14050B   18280.88769799 -.00000105  00000-0  00000-0 0  9995
2 40129  50.5606  25.0970 1655777  80.3729 297.8272  1.85520280 28367
1 40129U 14050B   18281.96570331 -.00000109  00000-0  00000+0 0  9990
2 40129  50.5609  25.0539 1655801  80.4076 297.7952  1.85520343 28358
1 40129U 14050B   18283.04371385 -.00000111  00000-0  00000-0 0  9993
2 40129  50.5612  25.0108 1655829  80.4421 297.7661  1.85520375 28406
1 40129U 14050B   18283.58272048 -.00000111  00000-0  00000-0 0  9998
2 40129  50.5613  24.9893 1655837  80.4592 297.7525  1.85520372 28411
1 40129U 14050B   18284.66073313 -.00000111  00000-0  00000+0 0  9991
2 40129  50.5616  24.9462 1655854  80.4937 297.7261  1.85520459 28400
1 40129U 14050B   18285.73874783 -.00000110  00000-0  00000-0 0  9990
2 40129  50.5618  24.9031 1655867  80.5285 297.7001  1.85520512 28452
1 40129U 14050B   18286.81676192 -.00000109  00000-0  00000+0 0  9991
2 40129  50.5621  24.8600 1655885  80.5629 297.6739  1.85520539 28444
1 40129U 14050B   18288.43377824 -.00000107  00000-0  00000-0 0  9990
2 40129  50.5624  24.7954 1655920  80.6143 297.6323  1.85520590 28503
1 40129U 14050B   18288.97278180 -.00000107  00000-0  00000+0 0  9993
2 40129  50.5626  24.7739 1655921  80.6315 297.6176  1.85520637 28483
1 40129U 14050B   18289.51178620 -.00000106  00000-0  00000-0 0  9992
2 40129  50.5627  24.7523 1655931  80.6486 297.6024  1.85520617 28520
1 40129U 14050B   18290.05078947 -.00000105  00000-0  00000-0 0  9993
2 40129  50.5628  24.7307 1655933  80.6657 297.5869  1.85520611 28534
1 40129U 14050B   18291.66779510 -.00000101  00000-0  00000+0 0  9990
2 40129  50.5632  24.6661 1655965  80.7173 297.5385  1.85520635 28539
1 40129U 14050B   18293.82380247 -.00000093  00000-0  00000+0 0  9995
2 40129  50.5637  24.5800 1656000  80.7860 297.4727  1.85520584 28578
1 40129U 14050B   18293.82380247 -.00000093  00000-0  00000-0 0  9996
2 40129  50.5637  24.5800 1656000  80.7860 297.4727  1.85520584 28602
1 40129U 14050B   18294.36280344 -.00000091  00000-0  00000-0 0  9991
2 40129  50.5639  24.5585 1656016  80.8033 297.4567  1.85520613 28610
1 40129U 14050B   18294.36280469 -.00000091  00000-0  00000-0 0  9999
2 40129  50.5639  24.5585 1656014  80.8030 297.4570  1.85520565 28615
1 40129U 14050B   18295.44081107 -.00000087  00000-0  00000-0 0  9992
2 40129  50.5641  24.5154 1656036  80.8377 297.4256  1.85520539 28632
